{
  "norad_id": 59557,
  "name": "YAOGAN-42 02",
  "history": [
    {
      "epoch": "2026-03-28T22:32:38.562144",
      "apogee_km": 500.1368979263616,
      "perigee_km": 492.95780255309455,
      "latitude_deg": 34.94056606365184,
      "longitude_deg": -134.1238198399078,
      "semi_major_axis_km": 6874.684350239728,
      "eccentricity": 0.00052214,
      "inclination_deg": 35.0004,
      "raan_deg": 54.2708,
      "arg_perigee_deg": 181.8211,
      "mean_anomaly_deg": 178.2485,
      "mean_motion_rev_day": 15.23083167
    },
    {
      "epoch": "2026-03-29T04:50:11.906880",
      "apogee_km": 500.1427925932585,
      "perigee_km": 492.8831622171183,
      "latitude_deg": -19.058104580785436,
      "longitude_deg": -108.95343680004589,
      "semi_major_axis_km": 6874.649977405188,
      "eccentricity": 0.000528,
      "inclination_deg": 35.0004,
      "raan_deg": 52.6218,
      "arg_perigee_deg": 183.9708,
      "mean_anomaly_deg": 176.0966,
      "mean_motion_rev_day": 15.2309459
    }
  ]
}